{
  "type": "FeatureCollection",
  "features": [
    {
      "type": "Feature",
      "id": 737745076,
      "properties": {
        "osmWayId": 737745076,
        "name": "谷中銀座",
        "highway": "pedestrian"
      },
      "geometry": {
        "type": "LineString",
        "coordinates": [
          [
            139.7648478,
            35.7276187
          ],
          [
            139.7648867,
            35.7276228
          ],
          [
            139.7651925,
            35.7276551
          ],
          [
            139.7652878,
            35.7276665
          ],
          [
            139.7654825,
            35.7276824
          ],
          [
            139.7655409,
            35.7276867
          ],
          [
            139.7656547,
            35.7276897
          ],
          [
            139.765789,
            35.7276879
          ]
        ]
      }
    },
    {
      "type": "Feature",
      "id": 671851311,
      "properties": {
        "osmWayId": 671851311,
        "name": "谷中銀座",
        "highway": "pedestrian"
      },
      "geometry": {
        "type": "LineString",
        "coordinates": [
          [
            139.765789,
            35.7276879
          ],
          [
            139.7660547,
            35.7276803
          ],
          [
            139.7662537,
            35.7276745
          ],
          [
            139.7663868,
            35.7276707
          ],
          [
            139.766696,
            35.7276519
          ]
        ]
      }
    }
  ]
}